{
  "type": "FeatureCollection",
  "features": [
    {
      "type": "Feature",
      "properties": {
        "norad_id": 37483,
        "name": "COSMOS 2251 DEB",
        "group": "cosmos-2251-debris",
        "lat": -11.01152066091968,
        "lon": 150.39920996020106,
        "alt_km": 686.1949076633709,
        "timestamp": "2025-12-07T05:38:10.301277+00:00",
        "meta_object_name": "COSMOS 2251 DEB",
        "meta_object_id": "1993-036BLL",
        "meta_epoch": "2025-12-05T18:45:36.919584",
        "meta_mean_motion": 14.4354054,
        "meta_eccentricity": 0.00928279,
        "meta_inclination": 73.9726,
        "meta_ra_of_asc_node": 156.316,
        "meta_arg_of_pericenter": 4.4276,
        "meta_mean_anomaly": 355.7679,
        "meta_ephemeris_type": 0,
        "meta_classification_type": "U",
        "meta_norad_cat_id": 37483,
        "meta_element_set_no": 999,
        "meta_rev_at_epoch": 65179,
        "meta_bstar": 0.00035231934,
        "meta_mean_motion_dot": 1.228e-05,
        "meta_mean_motion_ddot": 0,
        "tle_line1": "1 37483U 93036BLL 25339.78167731  .00001228  00000+0  35232-3 0  9998",
        "tle_line2": "2 37483  73.9726 156.3160 0092827   4.4276 355.7679 14.43540540651794"
      },
      "geometry": {
        "type": "Point",
        "coordinates": [
          150.39920996020106,
          -11.01152066091968
        ]
      }
    },
    {
      "type": "Feature",
      "properties": {
        "norad_id": 37484,
        "name": "COSMOS 2251 DEB",
        "group": "cosmos-2251-debris",
        "lat": -73.5402186522618,
        "lon": 139.50090202209657,
        "alt_km": 732.5690374448423,
        "timestamp": "2025-12-07T05:38:10.301287+00:00",
        "meta_object_name": "COSMOS 2251 DEB",
        "meta_object_id": "1993-036BLM",
        "meta_epoch": "2025-12-06T08:56:33.254304",
        "meta_mean_motion": 14.41742642,
        "meta_eccentricity": 0.00400909,
        "meta_inclination": 73.8227,
        "meta_ra_of_asc_node": 220.3904,
        "meta_arg_of_pericenter": 256.1563,
        "meta_mean_anomaly": 223.2643,
        "meta_ephemeris_type": 0,
        "meta_classification_type": "U",
        "meta_norad_cat_id": 37484,
        "meta_element_set_no": 999,
        "meta_rev_at_epoch": 65287,
        "meta_bstar": 0.0013292575,
        "meta_mean_motion_dot": 4.354e-05,
        "meta_mean_motion_ddot": 0,
        "tle_line1": "1 37484U 93036BLM 25340.37260711  .00004354  00000+0  13293-2 0  9993",
        "tle_line2": "2 37484  73.8227 220.3904 0040090 256.1563 223.2643 14.41742642652873"
      },
      "geometry": {
        "type": "Point",
        "coordinates": [
          139.50090202209657,
          -73.5402186522618
        ]
      }
    },
    {
      "type": "Feature",
      "properties": {
        "norad_id": 37486,
        "name": "COSMOS 2251 DEB",
        "group": "cosmos-2251-debris",
        "lat": 15.966198969991458,
        "lon": 129.357131217293,
        "alt_km": 695.7015904981608,
        "timestamp": "2025-12-07T05:38:10.301297+00:00",
        "meta_object_name": "COSMOS 2251 DEB",
        "meta_object_id": "1993-036BLP",
        "meta_epoch": "2025-12-05T16:15:13.753728",
        "meta_mean_motion": 14.1323143,
        "meta_eccentricity": 0.02290372,
        "meta_inclination": 73.6892,
        "meta_ra_of_asc_node": 127.3665,
        "meta_arg_of_pericenter": 356.725,
        "meta_mean_anomaly": 17.5084,
        "meta_ephemeris_type": 0,
        "meta_classification_type": "U",
        "meta_norad_cat_id": 37486,
        "meta_element_set_no": 999,
        "meta_rev_at_epoch": 63270,
        "meta_bstar": 0.0031719607,
        "meta_mean_motion_dot": 7.607e-05,
        "meta_mean_motion_ddot": 0,
        "tle_line1": "1 37486U 93036BLP 25339.67724252  .00007607  00000+0  31720-2 0  9990",
        "tle_line2": "2 37486  73.6892 127.3665 0229037 356.7250  17.5084 14.13231430632701"
      },
      "geometry": {
        "type": "Point",
        "coordinates": [
          129.357131217293,
          15.966198969991458
        ]
      }
    },
    {
      "type": "Feature",
      "properties": {
        "norad_id": 37487,
        "name": "COSMOS 2251 DEB",
        "group": "cosmos-2251-debris",
        "lat": -30.323078901390346,
        "lon": 32.7576948342493,
        "alt_km": 650.1919552468098,
        "timestamp": "2025-12-07T05:38:10.301306+00:00",
        "meta_object_name": "COSMOS 2251 DEB",
        "meta_object_id": "1993-036BLQ",
        "meta_epoch": "2025-12-06T07:36:14.773824",
        "meta_mean_motion": 14.80609361,
        "meta_eccentricity": 0.00252454,
        "meta_inclination": 73.9019,
        "meta_ra_of_asc_node": 204.8571,
        "meta_arg_of_pericenter": 44.15,
        "meta_mean_anomaly": 316.1684,
        "meta_ephemeris_type": 0,
        "meta_classification_type": "U",
        "meta_norad_cat_id": 37487,
        "meta_element_set_no": 999,
        "meta_rev_at_epoch": 81150,
        "meta_bstar": 0.0050036629,
        "meta_mean_motion_dot": 0.00038806,
        "meta_mean_motion_ddot": 0,
        "tle_line1": "1 37487U 93036BLQ 25340.31683766  .00038806  00000+0  50037-2 0  9995",
        "tle_line2": "2 37487  73.9019 204.8571 0025245  44.1500 316.1684 14.80609361811501"
      },
      "geometry": {
        "type": "Point",
        "coordinates": [
          32.7576948342493,
          -30.323078901390346
        ]
      }
    },
    {
      "type": "Feature",
      "properties": {
        "norad_id": 37491,
        "name": "COSMOS 2251 DEB",
        "group": "cosmos-2251-debris",
        "lat": -71.2172322619025,
        "lon": 161.4155582181564,
        "alt_km": 763.4187029118893,
        "timestamp": "2025-12-07T05:38:10.301316+00:00",
        "meta_object_name": "COSMOS 2251 DEB",
        "meta_object_id": "1993-036BLU",
        "meta_epoch": "2025-12-03T14:48:31.500000",
        "meta_mean_motion": 13.75236476,
        "meta_eccentricity": 0.03180692,
        "meta_inclination": 73.9058,
        "meta_ra_of_asc_node": 289.3863,
        "meta_arg_of_pericenter": 284.0782,
        "meta_mean_anomaly": 72.518,
        "meta_ephemeris_type": 0,
        "meta_classification_type": "U",
        "meta_norad_cat_id": 37491,
        "meta_element_set_no": 999,
        "meta_rev_at_epoch": 55621,
        "meta_bstar": 0.0021635807,
        "meta_mean_motion_dot": 2.973e-05,
        "meta_mean_motion_ddot": 0,
        "tle_line1": "1 37491U 93036BLU 25337.61703125  .00002973  00000+0  21636-2 0  9990",
        "tle_line2": "2 37491  73.9058 289.3863 0318069 284.0782  72.5180 13.75236476556211"
      },
      "geometry": {
        "type": "Point",
        "coordinates": [
          161.4155582181564,
          -71.2172322619025
        ]
      }
    },
    {
      "type": "Feature",
      "properties": {
        "norad_id": 37498,
        "name": "COSMOS 2251 DEB",
        "group": "cosmos-2251-debris",
        "lat": 4.752041849809795,
        "lon": 12.943393924707639,
        "alt_km": 710.4737826924629,
        "timestamp": "2025-12-07T05:38:10.301327+00:00",
        "meta_object_name": "COSMOS 2251 DEB",
        "meta_object_id": "1993-036BMB",
        "meta_epoch": "2025-12-02T07:38:53.705760",
        "meta_mean_motion": 14.54689112,
        "meta_eccentricity": 0.00134342,
        "meta_inclination": 74.038,
        "meta_ra_of_asc_node": 203.6034,
        "meta_arg_of_pericenter": 264.7495,
        "meta_mean_anomaly": 95.2135,
        "meta_ephemeris_type": 0,
        "meta_classification_type": "U",
        "meta_norad_cat_id": 37498,
        "meta_element_set_no": 999,
        "meta_rev_at_epoch": 65203,
        "meta_bstar": 0.00080152077,
        "meta_mean_motion_dot": 3.406e-05,
        "meta_mean_motion_ddot": 0,
        "tle_line1": "1 37498U 93036BMB 25336.31867715  .00003406  00000+0  80152-3 0  9990",
        "tle_line2": "2 37498  74.0380 203.6034 0013434 264.7495  95.2135 14.54689112652037"
      },
      "geometry": {
        "type": "Point",
        "coordinates": [
          12.943393924707639,
          4.752041849809795
        ]
      }
    },
    {
      "type": "Feature",
      "properties": {
        "norad_id": 37499,
        "name": "COSMOS 2251 DEB",
        "group": "cosmos-2251-debris",
        "lat": 65.81070397937978,
        "lon": 11.852743839912401,
        "alt_km": 752.7377631046766,
        "timestamp": "2025-12-07T05:38:10.301337+00:00",
        "meta_object_name": "COSMOS 2251 DEB",
        "meta_object_id": "1993-036BMC",
        "meta_epoch": "2025-12-05T06:26:07.747872",
        "meta_mean_motion": 14.34331053,
        "meta_eccentricity": 0.00266878,
        "meta_inclination": 74.0375,
        "meta_ra_of_asc_node": 335.869,
        "meta_arg_of_pericenter": 54.1527,
        "meta_mean_anomaly": 306.2098,
        "meta_ephemeris_type": 0,
        "meta_classification_type": "U",
        "meta_norad_cat_id": 37499,
        "meta_element_set_no": 999,
        "meta_rev_at_epoch": 85042,
        "meta_bstar": 0.00027954752,
        "meta_mean_motion_dot": 7.63e-06,
        "meta_mean_motion_ddot": 0,
        "tle_line1": "1 37499U 93036BMC 25339.26814523  .00000763  00000+0  27955-3 0  9992",
        "tle_line2": "2 37499  74.0375 335.8690 0026687  54.1527 306.2098 14.34331053850421"
      },
      "geometry": {
        "type": "Point",
        "coordinates": [
          11.852743839912401,
          65.81070397937978
        ]
      }
    }
  ]
}